[{"OBJECT_NAME":"STARLINK-35202","OBJECT_ID":"2025-210AB","EPOCH":"2026-03-09T22:01:49.326528","MEAN_MOTION":15.30204351,"ECCENTRICITY":0.00011828,"INCLINATION":53.1607,"RA_OF_ASC_NODE":306.1825,"ARG_OF_PERICENTER":60.5851,"MEAN_ANOMALY":299.5268,"EPHEMERIS_TYPE":0,"CLASSIFICATION_TYPE":"U","NORAD_CAT_ID":65647,"ELEMENT_SET_NO":999,"REV_AT_EPOCH":2776,"BSTAR":0.0008220002,"MEAN_MOTION_DOT":0.00024068,"MEAN_MOTION_DDOT":0},{"OBJECT_NAME":"OBJECT F","OBJECT_ID":"2021-022F","EPOCH":"2026-03-09T23:37:37.165152","MEAN_MOTION":15.31317672,"ECCENTRICITY":0.00120882,"INCLINATION":97.3982,"RA_OF_ASC_NODE":329.8375,"ARG_OF_PERICENTER":85.9268,"MEAN_ANOMALY":274.3355,"EPHEMERIS_TYPE":0,"CLASSIFICATION_TYPE":"U","NORAD_CAT_ID":47937,"ELEMENT_SET_NO":999,"REV_AT_EPOCH":27452,"BSTAR":0.00038690553,"MEAN_MOTION_DOT":0.00011656,"MEAN_MOTION_DDOT":0}]
